[{"OBJECT_NAME":"STARLINK-31895","OBJECT_ID":"2024-097Q","EPOCH":"2026-03-09T00:08:49.742592","MEAN_MOTION":15.27577588,"ECCENTRICITY":9.717e-5,"INCLINATION":42.9976,"RA_OF_ASC_NODE":278.1021,"ARG_OF_PERICENTER":290.4922,"MEAN_ANOMALY":69.5825,"EPHEMERIS_TYPE":0,"CLASSIFICATION_TYPE":"U","NORAD_CAT_ID":59849,"ELEMENT_SET_NO":999,"REV_AT_EPOCH":10181,"BSTAR":-4.849035e-5,"MEAN_MOTION_DOT":-1.596e-5,"MEAN_MOTION_DDOT":0},{"OBJECT_NAME":"YAOGAN-43 01H","OBJECT_ID":"2024-148H","EPOCH":"2026-03-10T00:13:57.702432","MEAN_MOTION":15.25826805,"ECCENTRICITY":0.000635,"INCLINATION":34.994,"RA_OF_ASC_NODE":64.6147,"ARG_OF_PERICENTER":359.2394,"MEAN_ANOMALY":0.8311,"EPHEMERIS_TYPE":0,"CLASSIFICATION_TYPE":"U","NORAD_CAT_ID":60465,"ELEMENT_SET_NO":999,"REV_AT_EPOCH":8702,"BSTAR":0.00039232254,"MEAN_MOTION_DOT":0.00010268,"MEAN_MOTION_DDOT":0}]
